GOES 18                 
1 51850U 22021A   26064.55608125  .00000089  00000+0  00000+0 0  9991
2 51850   0.0330  75.9319 0000716 327.9002 182.6318  1.00272608  5558
GOES 19                 
1 60133U 24119A   26064.56830131 -.00000256  00000+0  00000+0 0  9997
2 60133   0.0202 333.4083 0001045  52.2485 267.0300  1.00271699  5928
