[{"OBJECT_NAME":"GOES 18","OBJECT_ID":"2022-021A","EPOCH":"2026-03-05T13:20:45.420000","MEAN_MOTION":1.00272608,"ECCENTRICITY":7.162e-5,"INCLINATION":0.033,"RA_OF_ASC_NODE":75.9319,"ARG_OF_PERICENTER":327.9002,"MEAN_ANOMALY":182.6318,"EPHEMERIS_TYPE":0,"CLASSIFICATION_TYPE":"U","NORAD_CAT_ID":51850,"ELEMENT_SET_NO":999,"REV_AT_EPOCH":555,"BSTAR":0,"MEAN_MOTION_DOT":8.9e-7,"MEAN_MOTION_DDOT":0},{"OBJECT_NAME":"GOES 19","OBJECT_ID":"2024-119A","EPOCH":"2026-03-05T13:38:21.233184","MEAN_MOTION":1.00271699,"ECCENTRICITY":0.00010452,"INCLINATION":0.0202,"RA_OF_ASC_NODE":333.4083,"ARG_OF_PERICENTER":52.2485,"MEAN_ANOMALY":267.03,"EPHEMERIS_TYPE":0,"CLASSIFICATION_TYPE":"U","NORAD_CAT_ID":60133,"ELEMENT_SET_NO":999,"REV_AT_EPOCH":592,"BSTAR":0,"MEAN_MOTION_DOT":-2.56e-6,"MEAN_MOTION_DDOT":0}]
